[
    {
        "Altitude(m)": 604221.2147035963,
        "Argument of Periapsis(deg)": 0.0,
        "Eccentricity": 0.0,
        "Inclination(deg)": 60.0,
        "Latitude(deg)": 14.117305027242226,
        "Longitude(deg)": 173.3341745631579,
        "Mean Anomaly(deg)": 16.363599999999984,
        "RAAN(deg)": 265.0,
        "Satellite Name": "Test1 1167",
        "Satellite Number": 1167,
        "Semi-Major Axis(m)": 6980739.136638005,
        "Time(s)": 0
    },
    {
        "Altitude(m)": 604235.3558988194,
        "Argument of Periapsis(deg)": 0.00010418945913296404,
        "Eccentricity": 0.0,
        "Inclination(deg)": 60.0,
        "Latitude(deg)": 14.651701366663175,
        "Longitude(deg)": 173.6226224047262,
        "Mean Anomaly(deg)": 16.983706145461838,
        "RAAN(deg)": 264.99957995086027,
        "Satellite Name": "Test1 1167",
        "Satellite Number": 1167,
        "Semi-Major Axis(m)": 6980739.136638005,
        "Time(s)": 10
    }
]